{
  "type": "FeatureCollection",
  "features": [
    {
      "type": "Feature",
      "properties": {
        "norad_id": 46805,
        "name": "COSMOS 2547 (705K)",
        "group": "glo-ops",
        "lat": -43.923709837133984,
        "lon": 45.85306238660729,
        "alt_km": 19119.338545077844,
        "timestamp": "2025-12-15T07:02:37.877572+00:00",
        "meta_object_name": "COSMOS 2547 (705K)",
        "meta_object_id": "2020-075A",
        "meta_epoch": "2025-12-13T02:47:35.788416",
        "meta_mean_motion": 2.13100044,
        "meta_eccentricity": 0.00062786,
        "meta_inclination": 64.5959,
        "meta_ra_of_asc_node": 198.6839,
        "meta_arg_of_pericenter": 228.7725,
        "meta_mean_anomaly": 131.2461,
        "meta_ephemeris_type": 0,
        "meta_classification_type": "U",
        "meta_norad_cat_id": 46805,
        "meta_element_set_no": 999,
        "meta_rev_at_epoch": 3994,
        "meta_bstar": 0,
        "meta_mean_motion_dot": 7.7e-07,
        "meta_mean_motion_ddot": 0,
        "tle_line1": "1 46805U 20075A   25347.11638644  .00000077  00000+0  00000+0 0  9993",
        "tle_line2": "2 46805  64.5959 198.6839 0006278 228.7725 131.2461  2.13100044 39941"
      },
      "geometry": {
        "type": "Point",
        "coordinates": [
          45.85306238660729,
          -43.923709837133984
        ]
      }
    },
    {
      "type": "Feature",
      "properties": {
        "norad_id": 52984,
        "name": "COSMOS 2557 (706K)",
        "group": "glo-ops",
        "lat": 61.368916620875915,
        "lon": 79.58116250072615,
        "alt_km": 19158.005189835796,
        "timestamp": "2025-12-15T07:02:37.877583+00:00",
        "meta_object_name": "COSMOS 2557 (706K)",
        "meta_object_id": "2022-075A",
        "meta_epoch": "2025-12-07T04:21:00.419904",
        "meta_mean_motion": 2.13101754,
        "meta_eccentricity": 0.00137049,
        "meta_inclination": 64.4129,
        "meta_ra_of_asc_node": 321.247,
        "meta_arg_of_pericenter": 276.9,
        "meta_mean_anomaly": 82.939,
        "meta_ephemeris_type": 0,
        "meta_classification_type": "U",
        "meta_norad_cat_id": 52984,
        "meta_element_set_no": 999,
        "meta_rev_at_epoch": 2662,
        "meta_bstar": 0,
        "meta_mean_motion_dot": -5.2e-07,
        "meta_mean_motion_ddot": 0,
        "tle_line1": "1 52984U 22075A   25341.18125486 -.00000052  00000+0  00000+0 0  9990",
        "tle_line2": "2 52984  64.4129 321.2470 0013704 276.9000  82.9390  2.13101754 26625"
      },
      "geometry": {
        "type": "Point",
        "coordinates": [
          79.58116250072615,
          61.368916620875915
        ]
      }
    },
    {
      "type": "Feature",
      "properties": {
        "norad_id": 54031,
        "name": "COSMOS 2559 (707K)",
        "group": "glo-ops",
        "lat": -52.92961150903098,
        "lon": -179.5377040353707,
        "alt_km": 19116.591075264667,
        "timestamp": "2025-12-15T07:02:37.877594+00:00",
        "meta_object_name": "COSMOS 2559 (707K)",
        "meta_object_id": "2022-130A",
        "meta_epoch": "2025-12-14T00:56:40.379136",
        "meta_mean_motion": 2.13101379,
        "meta_eccentricity": 0.00117642,
        "meta_inclination": 64.3815,
        "meta_ra_of_asc_node": 321.0953,
        "meta_arg_of_pericenter": 192.3475,
        "meta_mean_anomaly": 167.6228,
        "meta_ephemeris_type": 0,
        "meta_classification_type": "U",
        "meta_norad_cat_id": 54031,
        "meta_element_set_no": 999,
        "meta_rev_at_epoch": 2474,
        "meta_bstar": 0,
        "meta_mean_motion_dot": -6.6e-07,
        "meta_mean_motion_ddot": 0,
        "tle_line1": "1 54031U 22130A   25348.03935624 -.00000066  00000+0  00000+0 0  9996",
        "tle_line2": "2 54031  64.3815 321.0953 0011764 192.3475 167.6228  2.13101379 24741"
      },
      "geometry": {
        "type": "Point",
        "coordinates": [
          -179.5377040353707,
          -52.92961150903098
        ]
      }
    },
    {
      "type": "Feature",
      "properties": {
        "norad_id": 54377,
        "name": "COSMOS 2564 (761)",
        "group": "glo-ops",
        "lat": 1.4889821870673894,
        "lon": -160.47988135887599,
        "alt_km": 19150.437442458344,
        "timestamp": "2025-12-15T07:02:37.877605+00:00",
        "meta_object_name": "COSMOS 2564 (761)",
        "meta_object_id": "2022-161A",
        "meta_epoch": "2025-12-14T19:43:47.966016",
        "meta_mean_motion": 2.13102112,
        "meta_eccentricity": 0.00085919,
        "meta_inclination": 64.7383,
        "meta_ra_of_asc_node": 198.8297,
        "meta_arg_of_pericenter": 204.5359,
        "meta_mean_anomaly": 155.5011,
        "meta_ephemeris_type": 0,
        "meta_classification_type": "U",
        "meta_norad_cat_id": 54377,
        "meta_element_set_no": 999,
        "meta_rev_at_epoch": 2370,
        "meta_bstar": 0,
        "meta_mean_motion_dot": 9.9e-07,
        "meta_mean_motion_ddot": 0,
        "tle_line1": "1 54377U 22161A   25348.82208294  .00000099  00000+0  00000+0 0  9991",
        "tle_line2": "2 54377  64.7383 198.8297 0008591 204.5359 155.5011  2.13102112 23707"
      },
      "geometry": {
        "type": "Point",
        "coordinates": [
          -160.47988135887599,
          1.4889821870673894
        ]
      }
    },
    {
      "type": "Feature",
      "properties": {
        "norad_id": 57517,
        "name": "COSMOS 2569 (703K)",
        "group": "glo-ops",
        "lat": -7.796867398422518,
        "lon": 75.2075229227235,
        "alt_km": 19119.668631814748,
        "timestamp": "2025-12-15T07:02:37.877616+00:00",
        "meta_object_name": "COSMOS 2569 (703K)",
        "meta_object_id": "2023-114A",
        "meta_epoch": "2025-12-13T21:31:33.711744",
        "meta_mean_motion": 2.13104015,
        "meta_eccentricity": 0.00105602,
        "meta_inclination": 65.1948,
        "meta_ra_of_asc_node": 78.8743,
        "meta_arg_of_pericenter": 286.9875,
        "meta_mean_anomaly": 72.9108,
        "meta_ephemeris_type": 0,
        "meta_classification_type": "U",
        "meta_norad_cat_id": 57517,
        "meta_element_set_no": 999,
        "meta_rev_at_epoch": 1831,
        "meta_bstar": 0,
        "meta_mean_motion_dot": -5.2e-07,
        "meta_mean_motion_ddot": 0,
        "tle_line1": "1 57517U 23114A   25347.89691796 -.00000052  00000+0  00000+0 0  9998",
        "tle_line2": "2 57517  65.1948  78.8743 0010560 286.9875  72.9108  2.13104015 18311"
      },
      "geometry": {
        "type": "Point",
        "coordinates": [
          75.2075229227235,
          -7.796867398422518
        ]
      }
    },
    {
      "type": "Feature",
      "properties": {
        "norad_id": 63130,
        "name": "COSMOS 2584 (704K)",
        "group": "glo-ops",
        "lat": 62.563823873286466,
        "lon": 143.00054860670767,
        "alt_km": 19137.941551440792,
        "timestamp": "2025-12-15T07:02:37.877627+00:00",
        "meta_object_name": "COSMOS 2584 (704K)",
        "meta_object_id": "2025-042A",
        "meta_epoch": "2025-12-14T06:03:59.682240",
        "meta_mean_motion": 2.13103048,
        "meta_eccentricity": 0.0007684,
        "meta_inclination": 64.9768,
        "meta_ra_of_asc_node": 79.0943,
        "meta_arg_of_pericenter": 217.8285,
        "meta_mean_anomaly": 142.1308,
        "meta_ephemeris_type": 0,
        "meta_classification_type": "U",
        "meta_norad_cat_id": 63130,
        "meta_element_set_no": 999,
        "meta_rev_at_epoch": 610,
        "meta_bstar": 0,
        "meta_mean_motion_dot": -5.4e-07,
        "meta_mean_motion_ddot": 0,
        "tle_line1": "1 63130U 25042A   25348.25277410 -.00000054  00000+0  00000+0 0  9994",
        "tle_line2": "2 63130  64.9768  79.0943 0007684 217.8285 142.1308  2.13103048  6103"
      },
      "geometry": {
        "type": "Point",
        "coordinates": [
          143.00054860670767,
          62.563823873286466
        ]
      }
    },
    {
      "type": "Feature",
      "properties": {
        "norad_id": 65590,
        "name": "COSMOS 2596 (708K)",
        "group": "glo-ops",
        "lat": -15.096939654509432,
        "lon": 148.6894040481475,
        "alt_km": 19144.643514851177,
        "timestamp": "2025-12-15T07:02:37.877639+00:00",
        "meta_object_name": "COSMOS 2596 (708K)",
        "meta_object_id": "2025-206B",
        "meta_epoch": "2025-12-14T19:11:43.005984",
        "meta_mean_motion": 2.13100538,
        "meta_eccentricity": 0.00140549,
        "meta_inclination": 64.743,
        "meta_ra_of_asc_node": 321.4024,
        "meta_arg_of_pericenter": 306.7253,
        "meta_mean_anomaly": 231.3639,
        "meta_ephemeris_type": 0,
        "meta_classification_type": "U",
        "meta_norad_cat_id": 65590,
        "meta_element_set_no": 999,
        "meta_rev_at_epoch": 198,
        "meta_bstar": 0,
        "meta_mean_motion_dot": -6.7e-07,
        "meta_mean_motion_ddot": 0,
        "tle_line1": "1 65590U 25206B   25348.79980331 -.00000067  00000+0  00000+0 0  9994",
        "tle_line2": "2 65590  64.7430 321.4024 0014054 306.7253 231.3639  2.13100538  1985"
      },
      "geometry": {
        "type": "Point",
        "coordinates": [
          148.6894040481475,
          -15.096939654509432
        ]
      }
    }
  ]
}